{
  "type": "FeatureCollection",
  "features": [
    {
      "type": "Feature",
      "properties": {
        "norad_id": 30654,
        "name": "FENGYUN 1C DEB",
        "group": "fengyun-1c-debris",
        "lat": 42.863095603802996,
        "lon": -101.77686971822281,
        "alt_km": 819.446066964977,
        "timestamp": "2025-12-09T18:55:17.509664+00:00",
        "meta_object_name": "FENGYUN 1C DEB",
        "meta_object_id": "1999-025APL",
        "meta_epoch": "2025-12-09T08:32:57.896160",
        "meta_mean_motion": 14.17076004,
        "meta_eccentricity": 0.00350107,
        "meta_inclination": 99.2408,
        "meta_ra_of_asc_node": 266.4642,
        "meta_arg_of_pericenter": 106.1694,
        "meta_mean_anomaly": 254.3336,
        "meta_ephemeris_type": 0,
        "meta_classification_type": "U",
        "meta_norad_cat_id": 30654,
        "meta_element_set_no": 999,
        "meta_rev_at_epoch": 96632,
        "meta_bstar": 0.0018124765,
        "meta_mean_motion_dot": 3.624e-05,
        "meta_mean_motion_ddot": 0,
        "tle_line1": "1 30654U 99025APL 25343.35622565  .00003624  00000+0  18125-2 0  9997",
        "tle_line2": "2 30654  99.2408 266.4642 0035010 106.1694 254.3336 14.17076004966320"
      },
      "geometry": {
        "type": "Point",
        "coordinates": [
          -101.77686971822281,
          42.863095603802996
        ]
      }
    },
    {
      "type": "Feature",
      "properties": {
        "norad_id": 30656,
        "name": "FENGYUN 1C DEB",
        "group": "fengyun-1c-debris",
        "lat": -71.98706003572119,
        "lon": -51.53495937322652,
        "alt_km": 768.604801936609,
        "timestamp": "2025-12-09T18:55:17.509674+00:00",
        "meta_object_name": "FENGYUN 1C DEB",
        "meta_object_id": "1999-025APN",
        "meta_epoch": "2025-12-09T04:27:28.010304",
        "meta_mean_motion": 14.45220859,
        "meta_eccentricity": 0.0030273,
        "meta_inclination": 99.0188,
        "meta_ra_of_asc_node": 157.0632,
        "meta_arg_of_pericenter": 97.2717,
        "meta_mean_anomaly": 263.1915,
        "meta_ephemeris_type": 0,
        "meta_classification_type": "U",
        "meta_norad_cat_id": 30656,
        "meta_element_set_no": 999,
        "meta_rev_at_epoch": 97034,
        "meta_bstar": 0.0036084,
        "meta_mean_motion_dot": 0.00012693,
        "meta_mean_motion_ddot": 0,
        "tle_line1": "1 30656U 99025APN 25343.18574086  .00012693  00000+0  36084-2 0  9994",
        "tle_line2": "2 30656  99.0188 157.0632 0030273  97.2717 263.1915 14.45220859970349"
      },
      "geometry": {
        "type": "Point",
        "coordinates": [
          -51.53495937322652,
          -71.98706003572119
        ]
      }
    },
    {
      "type": "Feature",
      "properties": {
        "norad_id": 30657,
        "name": "FENGYUN 1C DEB",
        "group": "fengyun-1c-debris",
        "lat": 78.26417823850336,
        "lon": 33.24997708170516,
        "alt_km": 755.5547131741341,
        "timestamp": "2025-12-09T18:55:17.509684+00:00",
        "meta_object_name": "FENGYUN 1C DEB",
        "meta_object_id": "1999-025APP",
        "meta_epoch": "2025-12-09T05:28:19.816896",
        "meta_mean_motion": 14.38523565,
        "meta_eccentricity": 0.0015855,
        "meta_inclination": 98.8357,
        "meta_ra_of_asc_node": 81.1557,
        "meta_arg_of_pericenter": 356.1208,
        "meta_mean_anomaly": 65.5278,
        "meta_ephemeris_type": 0,
        "meta_classification_type": "U",
        "meta_norad_cat_id": 30657,
        "meta_element_set_no": 999,
        "meta_rev_at_epoch": 97182,
        "meta_bstar": 0.0029903,
        "meta_mean_motion_dot": 9.118e-05,
        "meta_mean_motion_ddot": 0,
        "tle_line1": "1 30657U 99025APP 25343.22800714  .00009118  00000+0  29903-2 0  9990",
        "tle_line2": "2 30657  98.8357  81.1557 0015855 356.1208  65.5278 14.38523565971821"
      },
      "geometry": {
        "type": "Point",
        "coordinates": [
          33.24997708170516,
          78.26417823850336
        ]
      }
    },
    {
      "type": "Feature",
      "properties": {
        "norad_id": 30658,
        "name": "FENGYUN 1C DEB",
        "group": "fengyun-1c-debris",
        "lat": 34.50007695023696,
        "lon": -157.62865089406984,
        "alt_km": 935.0577922375351,
        "timestamp": "2025-12-09T18:55:17.509694+00:00",
        "meta_object_name": "FENGYUN 1C DEB",
        "meta_object_id": "1999-025APQ",
        "meta_epoch": "2025-12-09T00:53:43.403424",
        "meta_mean_motion": 13.87174481,
        "meta_eccentricity": 0.01834931,
        "meta_inclination": 98.4403,
        "meta_ra_of_asc_node": 15.8355,
        "meta_arg_of_pericenter": 237.6021,
        "meta_mean_anomaly": 120.727,
        "meta_ephemeris_type": 0,
        "meta_classification_type": "U",
        "meta_norad_cat_id": 30658,
        "meta_element_set_no": 999,
        "meta_rev_at_epoch": 94633,
        "meta_bstar": 0.0024137275,
        "meta_mean_motion_dot": 3.198e-05,
        "meta_mean_motion_ddot": 0,
        "tle_line1": "1 30658U 99025APQ 25343.03730791  .00003198  00000+0  24137-2 0  9993",
        "tle_line2": "2 30658  98.4403  15.8355 0183493 237.6021 120.7270 13.87174481946336"
      },
      "geometry": {
        "type": "Point",
        "coordinates": [
          -157.62865089406984,
          34.50007695023696
        ]
      }
    },
    {
      "type": "Feature",
      "properties": {
        "norad_id": 30660,
        "name": "FENGYUN 1C DEB",
        "group": "fengyun-1c-debris",
        "lat": -73.88825350147124,
        "lon": -129.52750811650398,
        "alt_km": 608.7494872973457,
        "timestamp": "2025-12-09T18:55:17.509704+00:00",
        "meta_object_name": "FENGYUN 1C DEB",
        "meta_object_id": "1999-025APS",
        "meta_epoch": "2025-12-09T12:58:46.161120",
        "meta_mean_motion": 14.87473978,
        "meta_eccentricity": 0.0137433,
        "meta_inclination": 98.1387,
        "meta_ra_of_asc_node": 79.9164,
        "meta_arg_of_pericenter": 344.9993,
        "meta_mean_anomaly": 27.6041,
        "meta_ephemeris_type": 0,
        "meta_classification_type": "U",
        "meta_norad_cat_id": 30660,
        "meta_element_set_no": 999,
        "meta_rev_at_epoch": 737,
        "meta_bstar": 0.00080260334,
        "meta_mean_motion_dot": 8.594e-05,
        "meta_mean_motion_ddot": 0,
        "tle_line1": "1 30660U 99025APS 25343.54081205  .00008594  00000+0  80260-3 0  9996",
        "tle_line2": "2 30660  98.1387  79.9164 0137433 344.9993  27.6041 14.87473978  7376"
      },
      "geometry": {
        "type": "Point",
        "coordinates": [
          -129.52750811650398,
          -73.88825350147124
        ]
      }
    },
    {
      "type": "Feature",
      "properties": {
        "norad_id": 30661,
        "name": "FENGYUN 1C DEB",
        "group": "fengyun-1c-debris",
        "lat": -67.99773564297404,
        "lon": -176.30771170912226,
        "alt_km": 885.8382564125295,
        "timestamp": "2025-12-09T18:55:17.509714+00:00",
        "meta_object_name": "FENGYUN 1C DEB",
        "meta_object_id": "1999-025APT",
        "meta_epoch": "2025-12-09T10:48:07.000128",
        "meta_mean_motion": 14.21139418,
        "meta_eccentricity": 0.01448151,
        "meta_inclination": 99.4869,
        "meta_ra_of_asc_node": 158.8839,
        "meta_arg_of_pericenter": 54.85,
        "meta_mean_anomaly": 306.6145,
        "meta_ephemeris_type": 0,
        "meta_classification_type": "U",
        "meta_norad_cat_id": 30661,
        "meta_element_set_no": 999,
        "meta_rev_at_epoch": 97855,
        "meta_bstar": 0.00019881904,
        "meta_mean_motion_dot": 4.31e-06,
        "meta_mean_motion_ddot": 0,
        "tle_line1": "1 30661U 99025APT 25343.45008102  .00000431  00000+0  19882-3 0  9996",
        "tle_line2": "2 30661  99.4869 158.8839 0144815  54.8500 306.6145 14.21139418978553"
      },
      "geometry": {
        "type": "Point",
        "coordinates": [
          -176.30771170912226,
          -67.99773564297404
        ]
      }
    },
    {
      "type": "Feature",
      "properties": {
        "norad_id": 30662,
        "name": "FENGYUN 1C DEB",
        "group": "fengyun-1c-debris",
        "lat": -32.59408049557513,
        "lon": 45.8390971418539,
        "alt_km": 807.5264252499001,
        "timestamp": "2025-12-09T18:55:17.509724+00:00",
        "meta_object_name": "FENGYUN 1C DEB",
        "meta_object_id": "1999-025APU",
        "meta_epoch": "2025-12-09T02:19:43.925952",
        "meta_mean_motion": 14.22321832,
        "meta_eccentricity": 0.00327932,
        "meta_inclination": 99.0534,
        "meta_ra_of_asc_node": 39.2783,
        "meta_arg_of_pericenter": 281.6226,
        "meta_mean_anomaly": 107.1029,
        "meta_ephemeris_type": 0,
        "meta_classification_type": "U",
        "meta_norad_cat_id": 30662,
        "meta_element_set_no": 999,
        "meta_rev_at_epoch": 96587,
        "meta_bstar": 0.0018706914,
        "meta_mean_motion_dot": 4.137e-05,
        "meta_mean_motion_ddot": 0,
        "tle_line1": "1 30662U 99025APU 25343.09703618  .00004137  00000+0  18707-2 0  9992",
        "tle_line2": "2 30662  99.0534  39.2783 0032793 281.6226 107.1029 14.22321832965875"
      },
      "geometry": {
        "type": "Point",
        "coordinates": [
          45.8390971418539,
          -32.59408049557513
        ]
      }
    }
  ]
}